{
  "links" : {
    "next" : "https://api.nasa.gov/neo/rest/v1/feed?start_date=1999-08-09&end_date=1999-08-09&detailed=true&api_key=t0TVs3DtDT2H8Oy2Zy8m2eVrNsAVKAexjcZXUckd",
    "prev" : "https://api.nasa.gov/neo/rest/v1/feed?start_date=1999-08-07&end_date=1999-08-07&detailed=true&api_key=t0TVs3DtDT2H8Oy2Zy8m2eVrNsAVKAexjcZXUckd",
    "self" : "https://api.nasa.gov/neo/rest/v1/feed?start_date=1999-08-08&end_date=1999-08-08&detailed=true&api_key=t0TVs3DtDT2H8Oy2Zy8m2eVrNsAVKAexjcZXUckd"
  },
  "element_count" : 4,
  "near_earth_objects" : {
    "1999-08-08" : [ {
      "links" : {
        "self" : "https://api.nasa.gov/neo/rest/v1/neo/2410622?api_key=t0TVs3DtDT2H8Oy2Zy8m2eVrNsAVKAexjcZXUckd"
      },
      "neo_reference_id" : "2410622",
      "name" : "410622 (2008 QF)",
      "nasa_jpl_url" : "http://ssd.jpl.nasa.gov/sbdb.cgi?sstr=2410622",
      "absolute_magnitude_h" : 21.6,
      "estimated_diameter" : {
        "kilometers" : {
          "estimated_diameter_min" : 0.1272198785,
          "estimated_diameter_max" : 0.2844722965
        },
        "meters" : {
          "estimated_diameter_min" : 127.2198785394,
          "estimated_diameter_max" : 284.4722965033
        },
        "miles" : {
          "estimated_diameter_min" : 0.0790507431,
          "estimated_diameter_max" : 0.1767628354
        },
        "feet" : {
          "estimated_diameter_min" : 417.3880663071,
          "estimated_diameter_max" : 933.3080892598
        }
      },
      "is_potentially_hazardous_asteroid" : false,
      "close_approach_data" : [ {
        "close_approach_date" : "1999-08-08",
        "epoch_date_close_approach" : 934095600000,
        "relative_velocity" : {
          "kilometers_per_second" : "1.6664210839",
          "kilometers_per_hour" : "5999.1159019177",
          "miles_per_hour" : "3727.6173224999"
        },
        "miss_distance" : {
          "astronomical" : "0.3288134051",
          "lunar" : "127.908416748",
          "kilometers" : "49189784",
          "miles" : "30565116"
        },
        "orbiting_body" : "Earth"
      } ],
      "orbital_data" : {
        "orbit_id" : "34",
        "orbit_determination_date" : "2017-08-25 06:19:57",
        "orbit_uncertainty" : "0",
        "minimum_orbit_intersection" : ".28775",
        "jupiter_tisserand_invariant" : "3.673",
        "epoch_osculation" : "2458000.5",
        "eccentricity" : ".3768998866019079",
        "semi_major_axis" : "2.077394882288021",
        "inclination" : "3.784006548731894",
        "ascending_node_longitude" : "192.6027572357543",
        "orbital_period" : "1093.646614673034",
        "perihelion_distance" : "1.294424986726282",
        "perihelion_argument" : "136.4288425200969",
        "aphelion_distance" : "2.86036477784976",
        "perihelion_time" : "2457984.923180943461",
        "mean_anomaly" : "5.127483398310148",
        "mean_motion" : ".3291739718936805",
        "equinox" : "J2000"
      }
    }, {
      "links" : {
        "self" : "https://api.nasa.gov/neo/rest/v1/neo/3182173?api_key=t0TVs3DtDT2H8Oy2Zy8m2eVrNsAVKAexjcZXUckd"
      },
      "neo_reference_id" : "3182173",
      "name" : "(2004 JR1)",
      "nasa_jpl_url" : "http://ssd.jpl.nasa.gov/sbdb.cgi?sstr=3182173",
      "absolute_magnitude_h" : 17.6,
      "estimated_diameter" : {
        "kilometers" : {
          "estimated_diameter_min" : 0.8027031673,
          "estimated_diameter_max" : 1.7948988478
        },
        "meters" : {
          "estimated_diameter_min" : 802.7031672829,
          "estimated_diameter_max" : 1794.8988477988
        },
        "miles" : {
          "estimated_diameter_min" : 0.4987764698,
          "estimated_diameter_max" : 1.115298092
        },
        "feet" : {
          "estimated_diameter_min" : 2633.5406593483,
          "estimated_diameter_max" : 5888.7759358124
        }
      },
      "is_potentially_hazardous_asteroid" : false,
      "close_approach_data" : [ {
        "close_approach_date" : "1999-08-08",
        "epoch_date_close_approach" : 934095600000,
        "relative_velocity" : {
          "kilometers_per_second" : "17.9164459017",
          "kilometers_per_hour" : "64499.2052460779",
          "miles_per_hour" : "40077.2978374866"
        },
        "miss_distance" : {
          "astronomical" : "0.3117928051",
          "lunar" : "121.287399292",
          "kilometers" : "46643540",
          "miles" : "28982950"
        },
        "orbiting_body" : "Earth"
      } ],
      "orbital_data" : {
        "orbit_id" : "70",
        "orbit_determination_date" : "2017-04-06 09:12:47",
        "orbit_uncertainty" : "0",
        "minimum_orbit_intersection" : ".16441",
        "jupiter_tisserand_invariant" : "2.855",
        "epoch_osculation" : "2458000.5",
        "eccentricity" : ".5937896566666417",
        "semi_major_axis" : "2.886402147411479",
        "inclination" : "28.61438898218909",
        "ascending_node_longitude" : "131.3311740953325",
        "orbital_period" : "1791.157126436745",
        "perihelion_distance" : "1.17248640729816",
        "perihelion_argument" : "168.6748598721835",
        "aphelion_distance" : "4.600317887524799",
        "perihelion_time" : "2458578.822794604953",
        "mean_anomaly" : "243.7644096182896",
        "mean_motion" : ".2009873922765053",
        "equinox" : "J2000"
      }
    }, {
      "links" : {
        "self" : "https://api.nasa.gov/neo/rest/v1/neo/3761750?api_key=t0TVs3DtDT2H8Oy2Zy8m2eVrNsAVKAexjcZXUckd"
      },
      "neo_reference_id" : "3761750",
      "name" : "(2016 UP41)",
      "nasa_jpl_url" : "http://ssd.jpl.nasa.gov/sbdb.cgi?sstr=3761750",
      "absolute_magnitude_h" : 21.6,
      "estimated_diameter" : {
        "kilometers" : {
          "estimated_diameter_min" : 0.1272198785,
          "estimated_diameter_max" : 0.2844722965
        },
        "meters" : {
          "estimated_diameter_min" : 127.2198785394,
          "estimated_diameter_max" : 284.4722965033
        },
        "miles" : {
          "estimated_diameter_min" : 0.0790507431,
          "estimated_diameter_max" : 0.1767628354
        },
        "feet" : {
          "estimated_diameter_min" : 417.3880663071,
          "estimated_diameter_max" : 933.3080892598
        }
      },
      "is_potentially_hazardous_asteroid" : false,
      "close_approach_data" : [ {
        "close_approach_date" : "1999-08-08",
        "epoch_date_close_approach" : 934095600000,
        "relative_velocity" : {
          "kilometers_per_second" : "10.6598516554",
          "kilometers_per_hour" : "38375.4659595008",
          "miles_per_hour" : "23845.0221680021"
        },
        "miss_distance" : {
          "astronomical" : "0.1796462559",
          "lunar" : "69.8823928833",
          "kilometers" : "26874698",
          "miles" : "16699163"
        },
        "orbiting_body" : "Earth"
      } ],
      "orbital_data" : {
        "orbit_id" : "15",
        "orbit_determination_date" : "2017-09-02 06:19:07",
        "orbit_uncertainty" : "3",
        "minimum_orbit_intersection" : ".0768408",
        "jupiter_tisserand_invariant" : "5.702",
        "epoch_osculation" : "2458000.5",
        "eccentricity" : ".1944667795411949",
        "semi_major_axis" : "1.081508581829274",
        "inclination" : "5.3480489370854",
        "ascending_node_longitude" : "250.2191750053158",
        "orbital_period" : "410.8122466363588",
        "perihelion_distance" : ".8711910908747703",
        "perihelion_argument" : "335.9728555200405",
        "aphelion_distance" : "1.291826072783778",
        "perihelion_time" : "2457903.001585683551",
        "mean_anomaly" : "85.43910129580627",
        "mean_motion" : ".8763127266716161",
        "equinox" : "J2000"
      }
    }, {
      "links" : {
        "self" : "https://api.nasa.gov/neo/rest/v1/neo/3763275?api_key=t0TVs3DtDT2H8Oy2Zy8m2eVrNsAVKAexjcZXUckd"
      },
      "neo_reference_id" : "3763275",
      "name" : "(2016 VZ)",
      "nasa_jpl_url" : "http://ssd.jpl.nasa.gov/sbdb.cgi?sstr=3763275",
      "absolute_magnitude_h" : 25.9,
      "estimated_diameter" : {
        "kilometers" : {
          "estimated_diameter_min" : 0.0175612318,
          "estimated_diameter_max" : 0.0392681082
        },
        "meters" : {
          "estimated_diameter_min" : 17.561231848,
          "estimated_diameter_max" : 39.2681081809
        },
        "miles" : {
          "estimated_diameter_min" : 0.0109120402,
          "estimated_diameter_max" : 0.0244000636
        },
        "feet" : {
          "estimated_diameter_min" : 57.6155918963,
          "estimated_diameter_max" : 128.8323800441
        }
      },
      "is_potentially_hazardous_asteroid" : false,
      "close_approach_data" : [ {
        "close_approach_date" : "1999-08-08",
        "epoch_date_close_approach" : 934095600000,
        "relative_velocity" : {
          "kilometers_per_second" : "8.2864748833",
          "kilometers_per_hour" : "29831.309579849",
          "miles_per_hour" : "18536.0156664345"
        },
        "miss_distance" : {
          "astronomical" : "0.3567979408",
          "lunar" : "138.7944030762",
          "kilometers" : "53376212",
          "miles" : "33166440"
        },
        "orbiting_body" : "Earth"
      } ],
      "orbital_data" : {
        "orbit_id" : "7",
        "orbit_determination_date" : "2017-04-06 08:22:30",
        "orbit_uncertainty" : "6",
        "minimum_orbit_intersection" : ".00794797",
        "jupiter_tisserand_invariant" : "5.871",
        "epoch_osculation" : "2458000.5",
        "eccentricity" : ".3248996908406564",
        "semi_major_axis" : "1.034555126707821",
        "inclination" : "4.181620160743995",
        "ascending_node_longitude" : "44.14761718469538",
        "orbital_period" : "384.3517675586699",
        "perihelion_distance" : ".6984284858828337",
        "perihelion_argument" : "107.8931966002987",
        "aphelion_distance" : "1.370681767532808",
        "perihelion_time" : "2458157.759534079291",
        "mean_anomaly" : "212.7041188644909",
        "mean_motion" : ".9366419784840648",
        "equinox" : "J2000"
      }
    } ]
  }
}